NORAD_CAT_ID,OBJECT_NAME,OBJECT_TYPE,EPOCH,MEAN_MOTION,ECCENTRICITY,INCLINATION,RA_OF_ASC_NODE,ARG_OF_PERICENTER,MEAN_ANOMALY,BSTAR,MEAN_MOTION_DOT,MEAN_MOTION_DDOT,TLE_LINE0,TLE_LINE1,TLE_LINE2,SEMIMAJOR_AXIS,PERIOD,APOGEE,PERIGEE,DECAYED
53830.0,STARLINK-4761,PAYLOAD,2024-02-27 03:08:25,15.08834661,0.0001581,53.2187,32.9377,89.9044,270.213,-4.0413e-06,-3.52e-06,0.0,0 STARLINK-4761,1 53830U 22114N   24058.13085263 -.00000352  00000-0 -40413-5 0  9995,2 53830  53.2187  32.9377 0001581  89.9044 270.2130 15.08834661 80349,6917.897,95.438,540.855,538.668,0.0
53830.0,STARLINK-4761,PAYLOAD,2024-02-27 07:54:34,15.08839489,0.000152,53.2181,32.0428,87.3748,272.7418,8.0746e-06,-1.59e-06,0.0,0 STARLINK-4761,1 53830U 22114N   24058.32956971 -.00000159  00000-0  80746-5 0  9996,2 53830  53.2181  32.0428 0001520  87.3748 272.7418 15.08839489 80919,6917.882,95.438,540.798,538.695,0.0
53830.0,STARLINK-4761,PAYLOAD,2024-02-27 22:13:03,15.08830094,0.0001294,53.219,29.3654,88.4797,271.6343,0.00011674,1.57e-05,0.0,0 STARLINK-4761,1 53830U 22114N   24058.92573357  .00001570  00000-0  11674-3 0  9994,2 53830  53.2190  29.3654 0001294  88.4797 271.6343 15.08830094 81002,6917.911,95.438,540.671,538.88,0.0
53830.0,STARLINK-4761,PAYLOAD,2024-02-28 04:34:35,15.08833966,0.0001255,53.2198,28.1766,99.5758,260.5376,0.00015807,2.228e-05,0.0,0 STARLINK-4761,1 53830U 22114N   24059.19069075  .00002228  00000-0  15807-3 0  9994,2 53830  53.2198  28.1766 0001255  99.5758 260.5376 15.08833966 80506,6917.899,95.438,540.632,538.896,0.0
53830.0,STARLINK-4761,PAYLOAD,2024-02-28 22:03:50,15.08836066,0.0001375,53.2194,24.9075,90.6155,269.4994,5.9566e-05,6.6e-06,0.0,0 STARLINK-4761,1 53830U 22114N   24059.91933409  .00000660  00000-0  59566-4 0  9994,2 53830  53.2194  24.9075 0001375  90.6155 269.4994 15.08836066 81155,6917.892,95.438,540.709,538.806,0.0
53830.0,STARLINK-4761,PAYLOAD,2024-02-29 07:36:08,15.08841568,0.0001386,53.2178,23.1224,93.8303,266.2847,0.00011483,1.54e-05,0.0,0 STARLINK-4761,1 53830U 22114N   24060.31676873  .00001540  00000-0  11483-3 0  9992,2 53830  53.2178  23.1224 0001386  93.8303 266.2847 15.08841568 80677,6917.876,95.437,540.699,538.782,0.0
53830.0,STARLINK-4761,PAYLOAD,2024-02-29 13:57:41,15.08837209,0.0001348,53.218,21.9308,92.8269,267.2877,8.095e-05,1.001e-05,0.0,0 STARLINK-4761,1 53830U 22114N   24060.58173210  .00001001  00000-0  80950-4 0  9996,2 53830  53.2180  21.9308 0001348  92.8269 267.2877 15.08837209 81253,6917.889,95.438,540.686,538.821,0.0
53830.0,STARLINK-4761,PAYLOAD,2024-02-29 21:54:37,15.0883881,0.0001205,53.2189,20.4462,94.1,266.013,-1.7291e-05,-5.63e-06,0.0,0 STARLINK-4761,1 53830U 22114N   24060.91293524 -.00000563  00000-0 -17291-4 0  9996,2 53830  53.2189  20.4462 0001205  94.1000 266.0130 15.08838810 80760,6917.884,95.438,540.583,538.915,0.0
53830.0,STARLINK-4761,PAYLOAD,2024-03-01 02:40:46,15.08846131,0.0001635,53.2202,19.556,107.7326,252.3845,5.5763e-05,6e-06,0.0,0 STARLINK-4761,1 53830U 22114N   24061.11164838  .00000600  00000-0  55763-4 0  9990,2 53830  53.2202  19.5560 0001635 107.7326 252.3845 15.08846131 80792,6917.862,95.437,540.858,538.596,0.0
53830.0,STARLINK-4761,PAYLOAD,2024-03-01 13:48:27,15.08848287,0.0001257,53.2184,17.4716,96.7999,263.3136,0.00011737,1.581e-05,0.0,0 STARLINK-4761,1 53830U 22114N   24061.57532304  .00001581  00000-0  11737-3 0  9998,2 53830  53.2184  17.4716 0001257  96.7999 263.3136 15.08848287 81402,6917.855,95.437,540.59,538.85,0.0
53830.0,STARLINK-4761,PAYLOAD,2024-03-02 04:06:55,15.08855147,0.0001569,53.2194,14.7963,100.6288,259.4881,0.00016155,2.285e-05,0.0,0 STARLINK-4761,1 53830U 22114N   24062.17147510  .00002285  00000-0  16155-3 0  9997,2 53830  53.2194  14.7963 0001569 100.6288 259.4881 15.08855147 80954,6917.834,95.437,540.784,538.614,0.0
53830.0,STARLINK-4761,PAYLOAD,2024-03-03 03:57:44,15.0883637,0.0001316,53.2192,10.3347,94.1483,265.9659,-6.0108e-05,-1.244e-05,0.0,0 STARLINK-4761,1 53830U 22114N   24063.16509332 -.00001244  00000-0 -60108-4 0  9995,2 53830  53.2192  10.3347 0001316  94.1483 265.9659 15.08836370 81104,6917.891,95.438,540.667,538.846,0.0
53830.0,STARLINK-4761,PAYLOAD,2024-03-03 05:33:07,15.08837268,0.0001323,53.2194,10.0372,93.4929,266.6215,-5.1111e-05,-1.101e-05,0.0,0 STARLINK-4761,1 53830U 22114N   24063.23133288 -.00001101  00000-0 -51111-4 0  9992,2 53830  53.2194  10.0372 0001323  93.4929 266.6215 15.08837268 81659,6917.889,95.438,540.669,538.839,0.0
53830.0,STARLINK-4761,PAYLOAD,2024-03-03 19:51:35,15.088334,0.0001179,53.2191,7.3619,99.6036,260.5089,-8.3052e-05,-1.609e-05,0.0,0 STARLINK-4761,1 53830U 22114N   24063.82749693 -.00001609  00000-0 -83052-4 0  9992,2 53830  53.2191   7.3619 0001179  99.6036 260.5089 15.08833400 81741,6917.901,95.438,540.581,538.95,0.0
53830.0,STARLINK-4761,PAYLOAD,2024-03-04 03:48:29,15.08859646,0.0001472,53.2198,5.8749,68.6413,291.4736,8.4523e-05,1.058e-05,0.0,0 STARLINK-4761,1 53830U 22114N   24064.15867662  .00001058  00000-0  84523-4 0  9996,2 53830  53.2198   5.8749 0001472  68.6413 291.4736 15.08859646 81254,6917.82,95.436,540.704,538.667,0.0
53830.0,STARLINK-4761,PAYLOAD,2024-03-04 13:20:49,15.08846316,0.0001295,53.2205,4.0896,81.5861,278.5278,7.3149e-06,-1.71e-06,0.0,0 STARLINK-4761,1 53830U 22114N   24064.55612375 -.00000171  00000-0  73149-5 0  9998,2 53830  53.2205   4.0896 0001295  81.5861 278.5278 15.08846316 81315,6917.861,95.437,540.622,538.83,0.0
53830.0,STARLINK-4761,PAYLOAD,2024-03-05 02:03:55,15.08833219,0.0001682,53.2195,1.7107,94.1988,265.9197,9.5813e-05,1.237e-05,0.0,0 STARLINK-4761,1 53830U 22114N   24065.08605399  .00001237  00000-0  95813-4 0  9999,2 53830  53.2195   1.7107 0001682  94.1988 265.9197 15.08833219 81398,6917.901,95.438,540.93,538.603,0.0
53830.0,STARLINK-4761,PAYLOAD,2024-03-05 05:14:41,15.08835875,0.0001768,53.2194,1.1154,93.6701,266.4493,0.00011614,1.561e-05,0.0,0 STARLINK-4761,1 53830U 22114N   24065.21853244  .00001561  00000-0  11614-3 0  9994,2 53830  53.2194   1.1154 0001768  93.6701 266.4493 15.08835875 81952,6917.893,95.438,540.981,538.535,0.0
53830.0,STARLINK-4761,PAYLOAD,2024-03-06 01:54:41,15.08847796,0.000151,53.2192,357.2502,90.8764,269.2401,-3.5706e-05,-8.56e-06,0.0,0 STARLINK-4761,1 53830U 22114N   24066.07965266 -.00000856  00000-0 -35706-4 0  9994,2 53830  53.2192 357.2502 0001510  90.8764 269.2401 15.08847796 81545,6917.857,95.437,540.766,538.677,0.0
53830.0,STARLINK-4761,PAYLOAD,2024-03-07 01:45:29,15.08838063,0.000157,53.2185,352.79,101.455,258.6618,9.3958e-05,1.208e-05,0.0,0 STARLINK-4761,1 53830U 22114N   24067.07325519  .00001208  00000-0  93958-4 0  9999,2 53830  53.2185 352.7900 0001570 101.4550 258.6618 15.08838063 81692,6917.886,95.438,540.837,538.665,0.0
53830.0,STARLINK-4761,PAYLOAD,2024-03-07 04:56:15,15.0884599,0.0001507,53.2188,352.1942,99.8828,260.2334,2.5692e-05,1.21e-06,0.0,0 STARLINK-4761,1 53830U 22114N   24067.20573231  .00000121  00000-0  25692-4 0  9993,2 53830  53.2188 352.1942 0001507  99.8828 260.2334 15.08845990 82257,6917.862,95.437,540.77,538.685,0.0
53830.0,STARLINK-4761,PAYLOAD,2024-03-08 00:00:53,15.08834852,0.0001677,53.2189,348.6235,106.3908,253.7269,1.0893e-05,-1.15e-06,0.0,0 STARLINK-4761,1 53830U 22114N   24068.00062242 -.00000115  00000-0  10893-4 0  9998,2 53830  53.2189 348.6235 0001677 106.3908 253.7269 15.08834852 81836,6917.896,95.438,540.921,538.601,0.0
53830.0,STARLINK-4761,PAYLOAD,2024-03-08 11:08:35,15.08840993,0.0001687,53.2193,346.5482,78.0607,282.0574,2.3791e-05,9.1e-07,0.0,0 STARLINK-4761,1 53830U 22114N   24068.46430098  .00000091  00000-0  23791-4 0  9999,2 53830  53.2193 346.5482 0001687  78.0607 282.0574 15.08840993 82449,6917.877,95.437,540.909,538.575,0.0
53830.0,STARLINK-4761,PAYLOAD,2024-03-08 19:05:31,15.08831249,0.0002029,53.219,345.0625,97.6401,262.4822,8.1867e-05,1.015e-05,0.0,0 STARLINK-4761,1 53830U 22114N   24068.79550686  .00001015  00000-0  81867-4 0  9996,2 53830  53.2190 345.0625 0002029  97.6401 262.4822 15.08831249 82496,6917.907,95.438,541.176,538.368,0.0
53830.0,STARLINK-4761,PAYLOAD,2024-03-09 04:37:50,15.08837627,0.0001527,53.2174,343.2763,98.8581,261.2584,7.8153e-05,9.56e-06,0.0,0 STARLINK-4761,1 53830U 22114N   24069.19294407  .00000956  00000-0  78153-4 0  9994,2 53830  53.2174 343.2763 0001527  98.8581 261.2584 15.08837627 82011,6917.888,95.438,540.809,538.696,0.0
53830.0,STARLINK-4761,PAYLOAD,2024-03-09 10:59:22,15.08845402,0.0001501,53.2177,342.087,94.135,265.9813,2.2575e-05,7.1e-07,0.0,0 STARLINK-4761,1 53830U 22114N   24069.45790061  .00000071  00000-0  22575-4 0  9995,2 53830  53.2177 342.0870 0001501  94.1350 265.9813 15.08845402 82594,6917.864,95.437,540.767,538.691,0.0
53830.0,STARLINK-4761,PAYLOAD,2024-03-10 01:17:50,15.08848476,0.0001283,53.2164,339.4096,74.3682,285.7452,0.0001212,1.642e-05,0.0,0 STARLINK-4761,1 53830U 22114N   24070.05405654  .00001642  00000-0  12120-3 0  9993,2 53830  53.2164 339.4096 0001283  74.3682 285.7452 15.08848476 82149,6917.854,95.437,540.607,538.832,0.0
53830.0,STARLINK-4761,PAYLOAD,2024-03-10 10:50:08,15.08853395,0.0001103,53.2159,337.6249,85.2387,274.8731,0.00014342,1.996e-05,0.0,0 STARLINK-4761,1 53830U 22114N   24070.45148915  .00001996  00000-0  14342-3 0  9991,2 53830  53.2159 337.6249 0001103  85.2387 274.8731 15.08853395 82748,6917.839,95.437,540.467,538.941,0.0
53830.0,STARLINK-4761,PAYLOAD,2024-03-10 21:57:50,15.08853118,0.0001273,53.215,335.5454,89.9551,270.1587,7.3424e-05,8.81e-06,0.0,0 STARLINK-4761,1 53830U 22114N   24070.91516832  .00000881  00000-0  73424-4 0  9998,2 53830  53.2150 335.5454 0001273  89.9551 270.1587 15.08853118 82815,6917.84,95.437,540.586,538.825,0.0
53830.0,STARLINK-4761,PAYLOAD,2024-03-11 02:43:59,15.08858407,0.000131,53.217,334.6522,94.6773,265.4368,0.00018361,2.637e-05,0.0,0 STARLINK-4761,1 53830U 22114N   24071.11388225  .00002637  00000-0  18361-3 0  9993,2 53830  53.2170 334.6522 0001310  94.6773 265.4368 15.08858407 82308,6917.824,95.436,540.595,538.783,0.0
